{
  "type": "FeatureCollection",
  "features": [
    {
      "type": "Feature",
      "properties": {
        "id": 1,
        "name": "Luxury Apartment",
        "price": 250000,
        "area": 120,
        "type": "Apartment",
        "image": "https://placehold.co/300x200"
      },
      "geometry": { "type": "Point", "coordinates": [31.2357, 30.0444] }
    },
    {
      "type": "Feature",
      "properties": {
        "id": 2,
        "name": "Modern Villa",
        "price": 980000,
        "area": 350,
        "type": "Villa",
        "image": "https://placehold.co/300x200"
      },
      "geometry": { "type": "Point", "coordinates": [31.24, 30.05] }
    }
  ]
}
